{"fetched_at":"2026-07-14T06:35:04.008Z","source":"https://celestrak.org/NORAD/elements/gp.php?NAME=SENTINEL&FORMAT=JSON","constellation":"sentinel-2","records":[{"OBJECT_NAME":"SENTINEL-2A","OBJECT_ID":"2015-028A","EPOCH":"2026-07-13T20:35:35.597760","CLASSIFICATION_TYPE":"U","MEAN_MOTION":14.3081356,"ECCENTRICITY":0.0001278,"INCLINATION":98.5684,"RA_OF_ASC_NODE":269.3298,"ARG_OF_PERICENTER":94.9725,"MEAN_ANOMALY":265.1604,"EPHEMERIS_TYPE":0,"NORAD_CAT_ID":40697,"ELEMENT_SET_NO":999,"REV_AT_EPOCH":57754,"BSTAR":-0.000023461,"MEAN_MOTION_DOT":-0.00000105,"MEAN_MOTION_DDOT":0},{"OBJECT_NAME":"SENTINEL-2B","OBJECT_ID":"2017-013A","EPOCH":"2026-07-13T20:25:14.552832","CLASSIFICATION_TYPE":"U","MEAN_MOTION":14.30813774,"ECCENTRICITY":0.0001226,"INCLINATION":98.5692,"RA_OF_ASC_NODE":269.2478,"ARG_OF_PERICENTER":90.0389,"MEAN_ANOMALY":270.0934,"EPHEMERIS_TYPE":0,"NORAD_CAT_ID":42063,"ELEMENT_SET_NO":999,"REV_AT_EPOCH":48845,"BSTAR":-0.000068802,"MEAN_MOTION_DOT":-0.00000224,"MEAN_MOTION_DDOT":0},{"OBJECT_NAME":"SENTINEL-2C","OBJECT_ID":"2024-157A","EPOCH":"2026-07-13T17:54:12.909600","CLASSIFICATION_TYPE":"U","MEAN_MOTION":14.30815413,"ECCENTRICITY":0.0000952,"INCLINATION":98.5685,"RA_OF_ASC_NODE":269.1511,"ARG_OF_PERICENTER":102.3663,"MEAN_ANOMALY":257.7627,"EPHEMERIS_TYPE":0,"NORAD_CAT_ID":60989,"ELEMENT_SET_NO":999,"REV_AT_EPOCH":9678,"BSTAR":0.000032115,"MEAN_MOTION_DOT":4.1e-7,"MEAN_MOTION_DDOT":0}]}
